[{"OBJECT_NAME":"O3B FM5","OBJECT_ID":"2013-031A","EPOCH":"2026-03-28T02:01:35.391360","MEAN_MOTION":5.00116427,"ECCENTRICITY":0.0003249,"INCLINATION":0.1013,"RA_OF_ASC_NODE":7.8394,"ARG_OF_PERICENTER":349.0661,"MEAN_ANOMALY":3.0879,"EPHEMERIS_TYPE":0,"CLASSIFICATION_TYPE":"U","NORAD_CAT_ID":39188,"ELEMENT_SET_NO":999,"REV_AT_EPOCH":23298,"BSTAR":0,"MEAN_MOTION_DOT":-2.9e-7,"MEAN_MOTION_DDOT":0},{"OBJECT_NAME":"O3B FM4","OBJECT_ID":"2013-031B","EPOCH":"2026-03-27T09:41:53.263680","MEAN_MOTION":5.00115128,"ECCENTRICITY":0.0005069,"INCLINATION":0.0535,"RA_OF_ASC_NODE":345.5776,"ARG_OF_PERICENTER":27.4764,"MEAN_ANOMALY":346.9547,"EPHEMERIS_TYPE":0,"CLASSIFICATION_TYPE":"U","NORAD_CAT_ID":39189,"ELEMENT_SET_NO":999,"REV_AT_EPOCH":23295,"BSTAR":0,"MEAN_MOTION_DOT":-2.8e-7,"MEAN_MOTION_DDOT":0},{"OBJECT_NAME":"O3B FM2","OBJECT_ID":"2013-031C","EPOCH":"2026-03-29T01:39:09.345024","MEAN_MOTION":5.00115972,"ECCENTRICITY":0.0002804,"INCLINATION":0.0526,"RA_OF_ASC_NODE":338.9765,"ARG_OF_PERICENTER":26.2407,"MEAN_ANOMALY":354.781,"EPHEMERIS_TYPE":0,"CLASSIFICATION_TYPE":"U","NORAD_CAT_ID":39190,"ELEMENT_SET_NO":999,"REV_AT_EPOCH":23309,"BSTAR":0,"MEAN_MOTION_DOT":-2.9e-7,"MEAN_MOTION_DDOT":0},{"OBJECT_NAME":"O3B PFM","OBJECT_ID":"2013-031D","EPOCH":"2026-03-29T01:59:30.399936","MEAN_MOTION":5.00115152,"ECCENTRICITY":0.0005545,"INCLINATION":0.0691,"RA_OF_ASC_NODE":4.8412,"ARG_OF_PERICENTER":23.4012,"MEAN_ANOMALY":331.783,"EPHEMERIS_TYPE":0,"CLASSIFICATION_TYPE":"U","NORAD_CAT_ID":39191,"ELEMENT_SET_NO":999,"REV_AT_EPOCH":23266,"BSTAR":0,"MEAN_MOTION_DOT":-2.9e-7,"MEAN_MOTION_DDOT":0},{"OBJECT_NAME":"O3B FM3","OBJECT_ID":"2014-038A","EPOCH":"2026-03-27T08:24:51.210144","MEAN_MOTION":5.00115572,"ECCENTRICITY":8.66e-5,"INCLINATION":0.0529,"RA_OF_ASC_NODE":354.5796,"ARG_OF_PERICENTER":77.5671,"MEAN_ANOMALY":287.8583,"EPHEMERIS_TYPE":0,"CLASSIFICATION_TYPE":"U","NORAD_CAT_ID":40079,"ELEMENT_SET_NO":999,"REV_AT_EPOCH":20895,"BSTAR":0,"MEAN_MOTION_DOT":-2.8e-7,"MEAN_MOTION_DDOT":0},{"OBJECT_NAME":"O3B FM7","OBJECT_ID":"2014-038B","EPOCH":"2026-03-28T21:29:58.200864","MEAN_MOTION":5.00115549,"ECCENTRICITY":0.0004269,"INCLINATION":0.0574,"RA_OF_ASC_NODE":348.2877,"ARG_OF_PERICENTER":7.0561,"MEAN_ANOMALY":4.6475,"EPHEMERIS_TYPE":0,"CLASSIFICATION_TYPE":"U","NORAD_CAT_ID":40080,"ELEMENT_SET_NO":999,"REV_AT_EPOCH":21386,"BSTAR":0,"MEAN_MOTION_DOT":-2.9e-7,"MEAN_MOTION_DDOT":0},{"OBJECT_NAME":"O3B FM6","OBJECT_ID":"2014-038C","EPOCH":"2026-03-29T02:56:41.484768","MEAN_MOTION":5.00115661,"ECCENTRICITY":0.000264,"INCLINATION":0.054,"RA_OF_ASC_NODE":351.7915,"ARG_OF_PERICENTER":13.8749,"MEAN_ANOMALY":354.332,"EPHEMERIS_TYPE":0,"CLASSIFICATION_TYPE":"U","NORAD_CAT_ID":40081,"ELEMENT_SET_NO":999,"REV_AT_EPOCH":21381,"BSTAR":0,"MEAN_MOTION_DOT":-2.9e-7,"MEAN_MOTION_DDOT":0},{"OBJECT_NAME":"O3B FM8","OBJECT_ID":"2014-038D","EPOCH":"2026-03-28T23:25:36.401664","MEAN_MOTION":5.00115967,"ECCENTRICITY":0.0002664,"INCLINATION":0.0547,"RA_OF_ASC_NODE":351.0075,"ARG_OF_PERICENTER":20.1497,"MEAN_ANOMALY":348.8441,"EPHEMERIS_TYPE":0,"CLASSIFICATION_TYPE":"U","NORAD_CAT_ID":40082,"ELEMENT_SET_NO":999,"REV_AT_EPOCH":21393,"BSTAR":0,"MEAN_MOTION_DOT":-2.9e-7,"MEAN_MOTION_DDOT":0},{"OBJECT_NAME":"O3B FM10","OBJECT_ID":"2014-083A","EPOCH":"2026-03-27T09:41:53.331936","MEAN_MOTION":5.00115499,"ECCENTRICITY":0.0002686,"INCLINATION":0.0455,"RA_OF_ASC_NODE":334.8109,"ARG_OF_PERICENTER":31.2091,"MEAN_ANOMALY":353.9787,"EPHEMERIS_TYPE":0,"CLASSIFICATION_TYPE":"U","NORAD_CAT_ID":40348,"ELEMENT_SET_NO":999,"REV_AT_EPOCH":20580,"BSTAR":0,"MEAN_MOTION_DOT":-2.8e-7,"MEAN_MOTION_DDOT":0},{"OBJECT_NAME":"O3B FM11","OBJECT_ID":"2014-083B","EPOCH":"2026-03-27T10:00:10.642176","MEAN_MOTION":5.00115538,"ECCENTRICITY":0.0003039,"INCLINATION":0.0578,"RA_OF_ASC_NODE":0.2533,"ARG_OF_PERICENTER":353.3632,"MEAN_ANOMALY":6.3752,"EPHEMERIS_TYPE":0,"CLASSIFICATION_TYPE":"U","NORAD_CAT_ID":40349,"ELEMENT_SET_NO":999,"REV_AT_EPOCH":20582,"BSTAR":0,"MEAN_MOTION_DOT":-2.8e-7,"MEAN_MOTION_DDOT":0},{"OBJECT_NAME":"O3B FM12","OBJECT_ID":"2014-083C","EPOCH":"2026-03-29T01:01:54.606432","MEAN_MOTION":5.0011588,"ECCENTRICITY":0.0002598,"INCLINATION":0.057,"RA_OF_ASC_NODE":359.6671,"ARG_OF_PERICENTER":2.7427,"MEAN_ANOMALY":357.5867,"EPHEMERIS_TYPE":0,"CLASSIFICATION_TYPE":"U","NORAD_CAT_ID":40350,"ELEMENT_SET_NO":999,"REV_AT_EPOCH":20591,"BSTAR":0,"MEAN_MOTION_DOT":-2.9e-7,"MEAN_MOTION_DDOT":0},{"OBJECT_NAME":"O3B FM9","OBJECT_ID":"2014-083D","EPOCH":"2026-03-29T01:40:32.728800","MEAN_MOTION":5.00115908,"ECCENTRICITY":0.0002709,"INCLINATION":0.059,"RA_OF_ASC_NODE":0.2606,"ARG_OF_PERICENTER":6.2009,"MEAN_ANOMALY":353.5374,"EPHEMERIS_TYPE":0,"CLASSIFICATION_TYPE":"U","NORAD_CAT_ID":40351,"ELEMENT_SET_NO":999,"REV_AT_EPOCH":20605,"BSTAR":0,"MEAN_MOTION_DOT":-2.9e-7,"MEAN_MOTION_DDOT":0},{"OBJECT_NAME":"LEO 1 (LEO VANTAGE 1)","OBJECT_ID":"2018-004C","EPOCH":"2026-03-29T05:00:29.706624","MEAN_MOTION":14.67386003,"ECCENTRICITY":0.0351207,"INCLINATION":99.2462,"RA_OF_ASC_NODE":356.067,"ARG_OF_PERICENTER":325.0621,"MEAN_ANOMALY":32.7974,"EPHEMERIS_TYPE":0,"CLASSIFICATION_TYPE":"U","NORAD_CAT_ID":43113,"ELEMENT_SET_NO":999,"REV_AT_EPOCH":42575,"BSTAR":0.00043409,"MEAN_MOTION_DOT":6.24e-5,"MEAN_MOTION_DDOT":0},{"OBJECT_NAME":"O3B FM15","OBJECT_ID":"2018-024A","EPOCH":"2026-03-28T22:28:51.407040","MEAN_MOTION":5.00115661,"ECCENTRICITY":0.0002658,"INCLINATION":0.05,"RA_OF_ASC_NODE":2.8478,"ARG_OF_PERICENTER":1.3696,"MEAN_ANOMALY":355.7802,"EPHEMERIS_TYPE":0,"CLASSIFICATION_TYPE":"U","NORAD_CAT_ID":43231,"ELEMENT_SET_NO":999,"REV_AT_EPOCH":14700,"BSTAR":0,"MEAN_MOTION_DOT":-2.9e-7,"MEAN_MOTION_DDOT":0},{"OBJECT_NAME":"O3B FM16","OBJECT_ID":"2018-024B","EPOCH":"2026-03-28T23:44:15.621216","MEAN_MOTION":5.00115912,"ECCENTRICITY":0.000271,"INCLINATION":0.0467,"RA_OF_ASC_NODE":5.8797,"ARG_OF_PERICENTER":357.6765,"MEAN_ANOMALY":356.4411,"EPHEMERIS_TYPE":0,"CLASSIFICATION_TYPE":"U","NORAD_CAT_ID":43232,"ELEMENT_SET_NO":999,"REV_AT_EPOCH":14692,"BSTAR":0,"MEAN_MOTION_DOT":-2.9e-7,"MEAN_MOTION_DDOT":0},{"OBJECT_NAME":"O3B FM14","OBJECT_ID":"2018-024C","EPOCH":"2026-03-29T00:42:57.808800","MEAN_MOTION":5.00115648,"ECCENTRICITY":0.0002856,"INCLINATION":0.0453,"RA_OF_ASC_NODE":5.2544,"ARG_OF_PERICENTER":1.8335,"MEAN_ANOMALY":352.9115,"EPHEMERIS_TYPE":0,"CLASSIFICATION_TYPE":"U","NORAD_CAT_ID":43233,"ELEMENT_SET_NO":999,"REV_AT_EPOCH":14694,"BSTAR":0,"MEAN_MOTION_DOT":-2.9e-7,"MEAN_MOTION_DDOT":0},{"OBJECT_NAME":"O3B FM13","OBJECT_ID":"2018-024D","EPOCH":"2026-03-25T16:44:28.678560","MEAN_MOTION":5.00115556,"ECCENTRICITY":0.00039678,"INCLINATION":0.047,"RA_OF_ASC_NODE":335.8508,"ARG_OF_PERICENTER":348.6026,"MEAN_ANOMALY":35.5167,"EPHEMERIS_TYPE":0,"CLASSIFICATION_TYPE":"U","NORAD_CAT_ID":43234,"ELEMENT_SET_NO":999,"REV_AT_EPOCH":14688,"BSTAR":0,"MEAN_MOTION_DOT":-2.4e-7,"MEAN_MOTION_DDOT":0}]
