O3B FM5                 
1 39188U 13031A   26087.08443740 -.00000029  00000+0  00000+0 0  9990
2 39188   0.1013   7.8394 0003249 349.0661   3.0879  5.00116427232981
O3B FM4                 
1 39189U 13031B   26086.40408870 -.00000028  00000+0  00000+0 0  9990
2 39189   0.0535 345.5776 0005069  27.4764 346.9547  5.00115128232954
O3B FM2                 
1 39190U 13031C   26088.06885816 -.00000029  00000+0  00000+0 0  9996
2 39190   0.0526 338.9765 0002804  26.2407 354.7810  5.00115972233098
O3B PFM                 
1 39191U 13031D   26088.08299074 -.00000029  00000+0  00000+0 0  9994
2 39191   0.0691   4.8412 0005545  23.4012 331.7830  5.00115152232665
O3B FM3                 
1 40079U 14038A   26086.35059271 -.00000028  00000+0  00000+0 0  9999
2 40079   0.0529 354.5796 0000866  77.5671 287.8583  5.00115572208951
O3B FM7                 
1 40080U 14038B   26087.89581251 -.00000029  00000+0  00000+0 0  9990
2 40080   0.0574 348.2877 0004269   7.0561   4.6475  5.00115549213865
O3B FM6                 
1 40081U 14038C   26088.12270237 -.00000029  00000+0  00000+0 0  9997
2 40081   0.0540 351.7915 0002640  13.8749 354.3320  5.00115661213819
O3B FM8                 
1 40082U 14038D   26087.97611576 -.00000029  00000+0  00000+0 0  9995
2 40082   0.0547 351.0075 0002664  20.1497 348.8441  5.00115967213938
O3B FM10                
1 40348U 14083A   26086.40408949 -.00000028  00000+0  00000+0 0  9994
2 40348   0.0455 334.8109 0002686  31.2091 353.9787  5.00115499205802
O3B FM11                
1 40349U 14083B   26086.41678984 -.00000028  00000+0  00000+0 0  9994
2 40349   0.0578   0.2533 0003039 353.3632   6.3752  5.00115538205823
O3B FM12                
1 40350U 14083C   26088.04299313 -.00000029  00000+0  00000+0 0  9993
2 40350   0.0570 359.6671 0002598   2.7427 357.5867  5.00115880205915
O3B FM9                 
1 40351U 14083D   26088.06982325 -.00000029  00000+0  00000+0 0  9998
2 40351   0.0590   0.2606 0002709   6.2009 353.5374  5.00115908206050
LEO 1 (LEO VANTAGE 1)   
1 43113U 18004C   26088.20867716  .00006240  00000+0  43409-3 0  9990
2 43113  99.2462 356.0670 0351207 325.0621  32.7974 14.67386003425753
O3B FM15                
1 43231U 18024A   26087.93670610 -.00000029  00000+0  00000+0 0  9993
2 43231   0.0500   2.8478 0002658   1.3696 355.7802  5.00115661147002
O3B FM16                
1 43232U 18024B   26087.98906969 -.00000029  00000+0  00000+0 0  9998
2 43232   0.0467   5.8797 0002710 357.6765 356.4411  5.00115912146928
O3B FM14                
1 43233U 18024C   26088.02983575 -.00000029  00000+0  00000+0 0  9993
2 43233   0.0453   5.2544 0002856   1.8335 352.9115  5.00115648146940
O3B FM13                
1 43234U 18024D   26084.69755415 -.00000024  00000+0  00000+0 0  9998
2 43234   0.0470 335.8508 0003967 348.6026  35.5167  5.00115556146887
